{
"type": "FeatureCollection",
"name": "daet_administrative_boundary",
"crs": { "type": "name", "properties": { "name": "urn:ogc:def:crs:OGC:1.3:CRS84" } },
"features": [
{ "type": "Feature", "properties": { "id": 1, "ADM_ID": "051603000", "REMARK": "Daet" }, "geometry": { "type": "MultiPolygon", "coordinates": [ [ [ [ 122.898386057970995, 14.0851961236637 ], [ 122.898404635090998, 14.084800667345201 ], [ 122.898460070404994, 14.0843692281084 ], [ 122.898460157778004, 14.0841714960606 ], [ 122.898427215406997, 14.0840182296375 ], [ 122.898050141377993, 14.0840184779368 ], [ 122.897846418781, 14.083440305919501 ], [ 122.897249896134994, 14.0826542350403 ], [ 122.897354397374002, 14.0817871321883 ], [ 122.897503754707998, 14.0814947269618 ], [ 122.897518980780006, 14.0814695123074 ], [ 122.897382848042, 14.0814607140771 ], [ 122.897370615455003, 14.081494744427101 ], [ 122.897271198883999, 14.0815974383741 ], [ 122.897174028837, 14.0815973969745 ], [ 122.897048542144006, 14.0816235645317 ], [ 122.897013908052998, 14.0827083172193 ], [ 122.897110857165003, 14.0832028925334 ], [ 122.896902574066999, 14.083324724191501 ], [ 122.896881667632002, 14.0834940782154 ], [ 122.896783827356003, 14.0849844155013 ], [ 122.896658014750003, 14.0869963842699 ], [ 122.896317514792997, 14.0879175308156 ], [ 122.896289679142001, 14.088053031381699 ], [ 122.896275765612003, 14.0881952783751 ], [ 122.896449098936003, 14.088513746218601 ], [ 122.896601631943994, 14.0889338301502 ], [ 122.897148953062, 14.0910815617267 ], [ 122.897170706739999, 14.0914787755967 ], [ 122.897197164868004, 14.0919622468843 ], [ 122.897698679542998, 14.105138163963501 ], [ 122.897710775877002, 14.1054125269804 ], [ 122.897578313311001, 14.105480689804001 ], [ 122.897641199758993, 14.105629228291001 ], [ 122.897698829164995, 14.1058238365019 ], [ 122.897756422143004, 14.1061004039073 ], [ 122.897756346829993, 14.1062693961691 ], [ 122.897861247036005, 14.106402582754001 ], [ 122.897897931215994, 14.1065101489577 ], [ 122.897876872473006, 14.1065920622171 ], [ 122.897687890111996, 14.106868524940699 ], [ 122.897671861383003, 14.107498415279199 ], [ 122.897876423371997, 14.107600904838501 ], [ 122.897918386881997, 14.1076982144782 ], [ 122.897314789036997, 14.108082051401199 ], [ 122.897314768412997, 14.1081281233577 ], [ 122.898117380442002, 14.1085484080015 ], [ 122.898489909833998, 14.108533195658101 ], [ 122.898531966646004, 14.108420551872699 ], [ 122.898500545692997, 14.108251546363901 ], [ 122.898532059518999, 14.1082105985554 ], [ 122.899339901766993, 14.108651324850401 ], [ 122.899381859577005, 14.108676970842399 ], [ 122.899245058766994, 14.109547466362701 ], [ 122.899271246306995, 14.1096242886127 ], [ 122.899491572111003, 14.1097831511783 ], [ 122.899601720728, 14.109808788549699 ], [ 122.899843181424998, 14.109624527186799 ], [ 122.899895666397995, 14.109614327258299 ], [ 122.900173426736998, 14.1103364835412 ], [ 122.900808127207, 14.1107771700866 ], [ 122.901142085480004, 14.1111613638805 ], [ 122.901142121112997, 14.1111667340189 ], [ 122.901246669206998, 14.1113342507134 ], [ 122.901142106181993, 14.111553494024299 ], [ 122.900723631906004, 14.1120624836052 ], [ 122.900571436706997, 14.1121238994512 ], [ 122.899826212171007, 14.1124206138877 ], [ 122.899637101948997, 14.1128967724385 ], [ 122.899642325094007, 14.113014546963401 ], [ 122.900555082311001, 14.113521902361001 ], [ 122.900707267347002, 14.1134861149815 ], [ 122.900638824921003, 14.114064763740499 ], [ 122.900767317231001, 14.114148479546699 ], [ 122.906853287603994, 14.114319199987101 ], [ 122.911894589642998, 14.114401870698099 ], [ 122.916341947733997, 14.114540312398001 ], [ 122.916372262943995, 14.1145410185018 ], [ 122.916375297247001, 14.114545167514001 ], [ 122.917808744653996, 14.1146204355808 ], [ 122.918061822016, 14.114609077940001 ], [ 122.918058834511001, 14.114580078250899 ], [ 122.918399027454001, 14.114603266832701 ], [ 122.920700816883993, 14.115714726018201 ], [ 122.920667984203007, 14.1157371215797 ], [ 122.920867372122999, 14.1158191093858 ], [ 122.920886882372002, 14.115804560910799 ], [ 122.921314575368996, 14.116010083474899 ], [ 122.929770043817001, 14.120094007364001 ], [ 122.931910122152999, 14.121126844167801 ], [ 122.932922976043002, 14.121615836478901 ], [ 122.937594485529999, 14.123868576010899 ], [ 122.939246312113994, 14.124674203714401 ], [ 122.939985287164006, 14.125029201533399 ], [ 122.940258377367002, 14.1251487944198 ], [ 122.940436227058001, 14.125223760985801 ], [ 122.940670435719994, 14.1254304019053 ], [ 122.940881276778001, 14.1256025569665 ], [ 122.940889623672007, 14.125610336435701 ], [ 122.941248789604003, 14.125936981670099 ], [ 122.941707026583998, 14.1263528362578 ], [ 122.942388767292996, 14.126970460014 ], [ 122.946200284688004, 14.1304349489311 ], [ 122.947986141060994, 14.1320520002199 ], [ 122.948266263283003, 14.132305836373 ], [ 122.948490124157999, 14.1325193929811 ], [ 122.948393878760996, 14.1325301496168 ], [ 122.949512903363001, 14.1335452097951 ], [ 122.950956004841004, 14.1348356856984 ], [ 122.955158093163007, 14.1386166072064 ], [ 122.957861807916998, 14.1410495213642 ], [ 122.957891260905996, 14.1410378604124 ], [ 122.958048615376001, 14.1412176201721 ], [ 122.958176720758004, 14.141332859272699 ], [ 122.958234208842995, 14.1413846075636 ], [ 122.959419797387994, 14.1424513157513 ], [ 122.960837403013997, 14.143726786782301 ], [ 122.962515380057994, 14.1452365011954 ], [ 122.963220441356, 14.145870876265199 ], [ 122.963751896228004, 14.1463490453697 ], [ 122.963998328114002, 14.1465707385253 ], [ 122.965522656920001, 14.147942155942999 ], [ 122.965688795076005, 14.148091615876799 ], [ 122.96602968274, 14.148398280456201 ], [ 122.966017688460994, 14.1484051673189 ], [ 122.9660826179, 14.148464025533601 ], [ 122.966089715901006, 14.148459137880799 ], [ 122.966154619061001, 14.1484393331682 ], [ 122.966205873882004, 14.1485757042324 ], [ 122.966308561999, 14.1486687142093 ], [ 122.966526233753996, 14.148865920393799 ], [ 122.966587937840004, 14.1489218522347 ], [ 122.966592454611998, 14.1489197048177 ], [ 122.966878129267997, 14.1491872130598 ], [ 122.967666810663999, 14.1504709997403 ], [ 122.967793695200001, 14.1506775496738 ], [ 122.968085666472007, 14.1505465719071 ], [ 122.968569433398002, 14.1503989819974 ], [ 122.968950707331004, 14.150243192648301 ], [ 122.969454972855999, 14.150112001617501 ], [ 122.969823947630005, 14.1500136083444 ], [ 122.970192922403996, 14.150021807783901 ], [ 122.970611093814995, 14.1499234145108 ], [ 122.971088711161002, 14.149724578104699 ], [ 122.971510982292003, 14.149597486793599 ], [ 122.972421120068006, 14.1492736089363 ], [ 122.972695801289007, 14.1492859080955 ], [ 122.973245163729999, 14.1492162128604 ], [ 122.973687933459004, 14.1490481243522 ], [ 122.974118404028999, 14.148937431919901 ], [ 122.974464830344999, 14.14907887225 ], [ 122.974854303716995, 14.149130118746401 ], [ 122.975194580453007, 14.149164966363999 ], [ 122.975493859992, 14.149144467765399 ], [ 122.975823887429002, 14.1491239691668 ], [ 122.976303554636004, 14.1490091770149 ], [ 122.976621282913001, 14.148957930518501 ], [ 122.976936961331006, 14.148822639767999 ], [ 122.977182944513999, 14.1488390386468 ], [ 122.977340783722994, 14.148851337806001 ], [ 122.977627764103005, 14.1487160470554 ], [ 122.978107431308999, 14.148588955744399 ], [ 122.978267320377995, 14.1487980414497 ], [ 122.978632195431999, 14.148875936124201 ], [ 122.978874078895004, 14.148810340608801 ], [ 122.978939674410995, 14.148552058267001 ], [ 122.979005269926006, 14.1479248011509 ], [ 122.979019618945003, 14.1477464633435 ], [ 122.979060616143002, 14.147527128338799 ], [ 122.979095463760004, 14.1473610896905 ], [ 122.979259452549002, 14.1470249126741 ], [ 122.979316848625004, 14.1465288465889 ], [ 122.979525934329999, 14.146008182185399 ], [ 122.979698122558005, 14.1455490135776 ], [ 122.979894909104004, 14.145089844969799 ], [ 122.980112194249003, 14.144692172157701 ], [ 122.980329479394001, 14.144310898224401 ], [ 122.980475019443006, 14.1441264108374 ], [ 122.980655407111001, 14.1439337240109 ], [ 122.980975185247999, 14.1434233089067 ], [ 122.981196570112999, 14.142976439458 ], [ 122.981438453576004, 14.142275387387199 ], [ 122.981553245727994, 14.141693227188 ], [ 122.981553245727994, 14.141338601432899 ], [ 122.981676237318993, 14.140764640673201 ], [ 122.981782830032003, 14.140444862535601 ], [ 122.981918120781998, 14.1402193779514 ], [ 122.982182552704003, 14.1397356110253 ], [ 122.982319893313999, 14.139485528122901 ], [ 122.982346541492007, 14.139395334289199 ], [ 122.982348591351993, 14.1392210962014 ], [ 122.982397787988006, 14.139081705731201 ], [ 122.982524879299007, 14.1388111242302 ], [ 122.982713466405997, 14.1381920665536 ], [ 122.982893854074007, 14.1376140060741 ], [ 122.983016845665006, 14.1372081338226 ], [ 122.983158285995003, 14.1368084111506 ], [ 122.983332524082996, 14.1365255304905 ], [ 122.983662551519998, 14.136088910341099 ], [ 122.984088922370006, 14.135420656028 ], [ 122.984457897143997, 14.1348425955485 ], [ 122.984953963229003, 14.134137443758 ], [ 122.985204046131997, 14.1337151726276 ], [ 122.985445929595002, 14.133358497012599 ], [ 122.985794405769994, 14.132743539055699 ], [ 122.986167480264001, 14.132226974371999 ], [ 122.986499557561004, 14.1316858113699 ], [ 122.986827535138005, 14.131308637156399 ], [ 122.987135014116006, 14.1307879727529 ], [ 122.987282604026007, 14.1304476960168 ], [ 122.987635179921, 14.130082820962301 ], [ 122.988123046566997, 14.1295047604829 ], [ 122.988504320499999, 14.129070190193399 ], [ 122.988815899198002, 14.1281887504552 ], [ 122.989299666123998, 14.127663986331999 ], [ 122.989767034170995, 14.127278612679 ], [ 122.990439388203995, 14.1266062586462 ], [ 122.990627975311, 14.1263356771452 ], [ 122.990545980917005, 14.125892907416199 ], [ 122.990349194371007, 14.125310747217 ], [ 122.990086812309002, 14.124515401592801 ], [ 122.990127809506006, 14.1241546262581 ], [ 122.990332795491994, 14.1234986711041 ], [ 122.990488584841003, 14.123588864937799 ], [ 122.990627975311, 14.1238758453177 ], [ 122.990947753449007, 14.1237774520446 ], [ 122.991384581331005, 14.1235212831753 ], [ 122.989746402240002, 14.122604851695099 ], [ 122.989568803645994, 14.1225378100771 ], [ 122.98831596318, 14.1230908383976 ], [ 122.988017751876001, 14.123222484391601 ], [ 122.987921434637002, 14.123264996154299 ], [ 122.987379324958994, 14.1240567099593 ], [ 122.987344597285997, 14.124130112188601 ], [ 122.986445156247996, 14.1239799149573 ], [ 122.986363996554005, 14.1239663623784 ], [ 122.985795310293, 14.124225725026101 ], [ 122.985579611380004, 14.124144345541 ], [ 122.985814965055994, 14.1236611223477 ], [ 122.985658099052998, 14.123402754470201 ], [ 122.985732488531994, 14.1232575062621 ], [ 122.985725127178, 14.123244876771899 ], [ 122.985741565525004, 14.123142771293701 ], [ 122.985564730600004, 14.123013359242799 ], [ 122.985459732432005, 14.122901580239001 ], [ 122.985441550413995, 14.122373380989499 ], [ 122.985153307434999, 14.1220977462975 ], [ 122.984506964876999, 14.122030375276999 ], [ 122.984074771303995, 14.1213794137145 ], [ 122.983870796689999, 14.121371733809401 ], [ 122.983668001609999, 14.1218529574938 ], [ 122.983525592879005, 14.122190858325199 ], [ 122.983365821069, 14.122280658055899 ], [ 122.982997055105997, 14.1224879931996 ], [ 122.982803903534005, 14.1223668738791 ], [ 122.981872398316, 14.122472393277899 ], [ 122.981569004294002, 14.1223654121385 ], [ 122.981370374668003, 14.1224196536267 ], [ 122.981360572585004, 14.1220911863513 ], [ 122.981611631524999, 14.121761998437901 ], [ 122.981399853468005, 14.121578249780599 ], [ 122.981133154283, 14.1215093432609 ], [ 122.981164548078993, 14.1213868698112 ], [ 122.981093931554, 14.1213103121994 ], [ 122.980986387932006, 14.121268972271601 ], [ 122.980994130632993, 14.1212552698028 ], [ 122.980795846518006, 14.121271994037899 ], [ 122.980419289273996, 14.121608800214601 ], [ 122.980136920776999, 14.121501596761799 ], [ 122.980231100357003, 14.1211724343075 ], [ 122.980474260693001, 14.1209121697008 ], [ 122.980639000259998, 14.120866259174401 ], [ 122.980764552815998, 14.1206519086145 ], [ 122.980874339173994, 14.1206442510475 ], [ 122.981007666314994, 14.120942840632599 ], [ 122.981203145191003, 14.1208862289271 ], [ 122.981509740581998, 14.1207974048687 ], [ 122.981643114630003, 14.1205218350074 ], [ 122.981614085898002, 14.1204963895022 ], [ 122.981480971215007, 14.1203797549604 ], [ 122.981391494549996, 14.120301307174399 ], [ 122.980788128526001, 14.120085417703001 ], [ 122.980544939927995, 14.120246131608299 ], [ 122.980364537816996, 14.1201772311931 ], [ 122.980309655694995, 14.1198327238238 ], [ 122.980733249007997, 14.119702615867601 ], [ 122.980976458184998, 14.1192854319095 ], [ 122.980466608642004, 14.118971516395799 ], [ 122.980231319254003, 14.118634660583 ], [ 122.980043064521993, 14.118550426634799 ], [ 122.980050907877995, 14.118251848203199 ], [ 122.980286240721, 14.118075801485199 ], [ 122.980513718108, 14.1183437708547 ], [ 122.980639175837993, 14.1187877979213 ], [ 122.980827438028996, 14.118787812993901 ], [ 122.981023592941, 14.1183361452804 ], [ 122.981980542219006, 14.1187496075372 ], [ 122.981894266235997, 14.118512278469201 ], [ 122.982115096249004, 14.117919210693 ], [ 122.982039890175997, 14.117824209385599 ], [ 122.981431541424996, 14.1178232743683 ], [ 122.981054226002996, 14.117312193973699 ], [ 122.981412825088995, 14.116983903422501 ], [ 122.981400230877995, 14.116927571658101 ], [ 122.981377657403002, 14.1168578693536 ], [ 122.981306105295005, 14.116636651562599 ], [ 122.980811944755999, 14.1166442789944 ], [ 122.980615810947, 14.116858623978301 ], [ 122.980623630617998, 14.1172796796769 ], [ 122.980537335793997, 14.1172873019989 ], [ 122.980254986407999, 14.117019365169501 ], [ 122.980945370987001, 14.1157218126451 ], [ 122.981251283636993, 14.115545770519899 ], [ 122.981002666885004, 14.1148719294837 ], [ 122.980994206426004, 14.1148490409558 ], [ 122.981007230602998, 14.1147514167422 ], [ 122.980899038887998, 14.113871929158501 ], [ 122.980890810210994, 14.1138004502311 ], [ 122.980429744169001, 14.1138305970202 ], [ 122.979448109665, 14.113892919821501 ], [ 122.979286242127998, 14.113704358852999 ], [ 122.979286253192001, 14.1135818828669 ], [ 122.979019559744003, 14.1135588978384 ], [ 122.978713682150996, 14.113367472162601 ], [ 122.978462688665999, 14.1130535750204 ], [ 122.978423506127996, 14.112870616747101 ], [ 122.978380701397001, 14.112870612906899 ], [ 122.978051796128, 14.112627371817901 ], [ 122.977607673668004, 14.113260228481799 ], [ 122.976995855018004, 14.113168286026101 ], [ 122.976611530498005, 14.113091696870899 ], [ 122.976441095403999, 14.112847950436199 ], [ 122.976274265143999, 14.1126093521492 ], [ 122.976635126584995, 14.112418025641899 ], [ 122.976784146724995, 14.112410373735001 ], [ 122.976901824633003, 14.1123797567958 ], [ 122.977003797669994, 14.1122955851413 ], [ 122.976995957929006, 14.112142443098399 ], [ 122.976870495428997, 14.1118515552027 ], [ 122.976611694620004, 14.1114825096641 ], [ 122.976690153320007, 14.1112681935178 ], [ 122.976153411886997, 14.1110606687422 ], [ 122.976035781701995, 14.1110032522196 ], [ 122.975513603612001, 14.1108852790207 ], [ 122.974964545459997, 14.110548385742501 ], [ 122.974995956064006, 14.110288104324701 ], [ 122.975576455755004, 14.109706375030701 ], [ 122.975654939191003, 14.1092623657185 ], [ 122.975459650700003, 14.1090381336537 ], [ 122.975341311156001, 14.108530810799 ], [ 122.975521830724006, 14.108465795070799 ], [ 122.978541800235007, 14.107470868039201 ], [ 122.979718391663994, 14.1072413135193 ], [ 122.980502778865997, 14.1068586174828 ], [ 122.981875460229006, 14.1067821725338 ], [ 122.983449981259994, 14.106657587697301 ], [ 122.985635606000997, 14.1062704488102 ], [ 122.987812605162006, 14.105966360037099 ], [ 122.987816292372003, 14.1058455137115 ], [ 122.987946030325006, 14.1058537420985 ], [ 122.988520975612005, 14.105817861146701 ], [ 122.988543850661998, 14.105565895102 ], [ 122.988582839374004, 14.1052059128432 ], [ 122.988775506394006, 14.104915379160101 ], [ 122.989055705596996, 14.1048128410213 ], [ 122.988915622541001, 14.104522254831799 ], [ 122.989038198168004, 14.1043171583669 ], [ 122.989563598302993, 14.104334255026099 ], [ 122.989826282051993, 14.103855694743499 ], [ 122.990334164550006, 14.1035309892047 ], [ 122.990421717185995, 14.103257523245301 ], [ 122.991314869782002, 14.1027105811347 ], [ 122.991502360023006, 14.1027064398554 ], [ 122.991764044025004, 14.102429905528799 ], [ 122.991818763832001, 14.1023720580803 ], [ 122.992007567041, 14.1017046492437 ], [ 122.992328236248994, 14.100843327017699 ], [ 122.992639098989997, 14.100423651368599 ], [ 122.993117383113997, 14.099746435836799 ], [ 122.993132334402006, 14.0997182152734 ], [ 122.993137912673006, 14.0997076973731 ], [ 122.993183902354005, 14.0997076986785 ], [ 122.993226024284994, 14.099617259370399 ], [ 122.993359296340998, 14.0993310533488 ], [ 122.993336096413998, 14.0988626866546 ], [ 122.993489924770998, 14.0987501411298 ], [ 122.993618977073993, 14.098596204873299 ], [ 122.993520583801001, 14.098485512441 ], [ 122.993323797255002, 14.098391218887601 ], [ 122.993110611830005, 14.0983748200088 ], [ 122.992856429208004, 14.098243628978 ], [ 122.992811332290998, 14.0980140446741 ], [ 122.993001969256994, 14.0977824105103 ], [ 122.993102412390002, 14.0976122721423 ], [ 122.992946623040993, 14.097528227888199 ], [ 122.992932274021996, 14.0974728816721 ], [ 122.993000688094995, 14.097402930204501 ], [ 122.993103181088003, 14.097212293237799 ], [ 122.993279469035002, 14.0970975010859 ], [ 122.993582848293997, 14.0970278058508 ], [ 122.993730438203997, 14.0969622103354 ], [ 122.993752217964996, 14.096858948645099 ], [ 122.993711220768006, 14.0967687548114 ], [ 122.993750168104995, 14.0966129654624 ], [ 122.993758367544004, 14.096486899081199 ], [ 122.993920306473001, 14.096068727670501 ], [ 122.993920306473001, 14.096003132155101 ], [ 122.994004350726996, 14.0958186447681 ], [ 122.994119142879001, 14.095679254297901 ], [ 122.994272882367994, 14.0955583125663 ], [ 122.994573558539997, 14.0954778808799 ], [ 122.994679523317004, 14.0954791367294 ], [ 122.99478714096, 14.095516034206801 ], [ 122.994865035634007, 14.0956072529704 ], [ 122.994921406779994, 14.0957456185107 ], [ 122.994979482147997, 14.0958223932709 ], [ 122.995059772321, 14.0959885269037 ], [ 122.995113068677, 14.0960664215782 ], [ 122.995180714051997, 14.0960705212979 ], [ 122.995240159988001, 14.096054122419099 ], [ 122.995279107325004, 14.096019274801501 ], [ 122.995297556064003, 14.095976227744501 ], [ 122.995285256905007, 14.0959208815284 ], [ 122.995412348216007, 14.095847086573601 ], [ 122.995430796953997, 14.095785590777901 ], [ 122.995545589106001, 14.095699496663901 ], [ 122.995752624952004, 14.095484261378999 ], [ 122.995801821588003, 14.0954022669848 ], [ 122.995974009815995, 14.0953838182461 ], [ 122.996260990196006, 14.0954945106783 ], [ 122.996470075901996, 14.095400217124901 ], [ 122.996427028845005, 14.0953059235715 ], [ 122.996572568893995, 14.0952403280561 ], [ 122.996662762727993, 14.0951316854837 ], [ 122.996908745911, 14.094989732688701 ], [ 122.996929244509005, 14.0949528352113 ], [ 122.996920020139996, 14.0948723782119 ], [ 122.996949743108004, 14.0948272812951 ], [ 122.997024562993005, 14.0947524614103 ], [ 122.996900546470997, 14.094597696991199 ], [ 122.996408580106007, 14.0941467278228 ], [ 122.996293787954002, 14.0942123233382 ], [ 122.996097001408003, 14.094072932868 ], [ 122.996203594120004, 14.093876146321801 ], [ 122.996064203649993, 14.0937367558516 ], [ 122.995965810377001, 14.093531769866001 ], [ 122.995838719066001, 14.0934784735097 ], [ 122.995834619345999, 14.093429276873101 ], [ 122.995793622148994, 14.093334983319799 ], [ 122.995715727474007, 14.0933308836 ], [ 122.995424647375003, 14.093134097053801 ], [ 122.995498442330003, 14.092961908825901 ], [ 122.995420547655002, 14.0928840141514 ], [ 122.995354952140005, 14.092826618075399 ], [ 122.995277057465003, 14.0926052332109 ], [ 122.995154065874004, 14.092527338536399 ], [ 122.995170464753002, 14.0922239592777 ], [ 122.995285256905007, 14.091977976094901 ], [ 122.995309855222999, 14.091592602442001 ], [ 122.995260658586005, 14.0909858439245 ], [ 122.995285256905007, 14.0906660657869 ], [ 122.995506641768998, 14.090461079801299 ], [ 122.995703428314997, 14.0900675067089 ], [ 122.995842818786002, 14.089739529131901 ], [ 122.996047804770996, 14.089206565569301 ], [ 122.996113400287001, 14.088608006491301 ], [ 122.996236391878, 14.088173436201799 ], [ 122.996318386271994, 14.0877880625488 ], [ 122.996474175621003, 14.086648340468701 ], [ 122.996498773940004, 14.0858365959657 ], [ 122.996457776742005, 14.085065848659699 ], [ 122.996260990196006, 14.084655876688499 ], [ 122.995793622148994, 14.084122913125899 ], [ 122.995285256905007, 14.083442359653599 ], [ 122.995059772320005, 14.0829175955304 ], [ 122.994879384653004, 14.0826019171125 ], [ 122.994514509599, 14.0822780392553 ], [ 122.994174232863003, 14.081880366443199 ], [ 122.994088138749007, 14.081671280737799 ], [ 122.993706864814996, 14.081392499797399 ], [ 122.992927918069995, 14.0810235250232 ], [ 122.992263763476998, 14.080990727265499 ], [ 122.991665204398998, 14.081253109327101 ], [ 122.990492684561005, 14.0814498958733 ], [ 122.989574347344998, 14.0814252975551 ], [ 122.988082049370007, 14.081138317175199 ], [ 122.986269973256995, 14.0805069603395 ], [ 122.984553119585996, 14.0799897491918 ], [ 122.984425561129996, 14.080139538237701 ], [ 122.984221566314005, 14.080407106312901 ], [ 122.984176193647997, 14.080318847797001 ], [ 122.984114104566004, 14.080548093323999 ], [ 122.983823169567998, 14.0815532538408 ], [ 122.983628366651999, 14.0821876213212 ], [ 122.984110646990004, 14.0828134789685 ], [ 122.984475345538996, 14.082882425727201 ], [ 122.983922895912002, 14.0840645987274 ], [ 122.983169487433997, 14.083278506563101 ], [ 122.982998915926004, 14.083031579127001 ], [ 122.982528278122004, 14.0835138584067 ], [ 122.981570203310994, 14.0828674811358 ], [ 122.981454400529003, 14.0828957303235 ], [ 122.981187715556004, 14.0832019559675 ], [ 122.981344546488003, 14.0839598249238 ], [ 122.981446485483005, 14.0841206037463 ], [ 122.981242539695998, 14.0841665489848 ], [ 122.980912599703004, 14.0840481947856 ], [ 122.980905306148003, 14.0841511898394 ], [ 122.981195475701, 14.084350241229499 ], [ 122.981415083959007, 14.084403848569901 ], [ 122.981987578724997, 14.084702471922499 ], [ 122.982081724363994, 14.0845800026538 ], [ 122.982544468117993, 14.0846642182 ], [ 122.983221821346007, 14.085204947009901 ], [ 122.983216964080995, 14.0852128352255 ], [ 122.983215901636996, 14.085213427718999 ], [ 122.982575697403007, 14.0861340838893 ], [ 122.981389248198994, 14.086237509357099 ], [ 122.980912984138996, 14.0862717669677 ], [ 122.979563994743003, 14.085842933942599 ], [ 122.978936593350994, 14.0855825947431 ], [ 122.978335602016003, 14.0857207208084 ], [ 122.978338639479006, 14.085699240514099 ], [ 122.978169563758001, 14.0857189281336 ], [ 122.978168044670994, 14.0857333347902 ], [ 122.977109188043002, 14.0859351539385 ], [ 122.977093250601001, 14.0859490036871 ], [ 122.976840964409007, 14.0859802375196 ], [ 122.975400704514001, 14.0861586798916 ], [ 122.975130098486005, 14.0861242091603 ], [ 122.974941856835997, 14.0861815946348 ], [ 122.974800696125001, 14.086296389846201 ], [ 122.975666729367006, 14.086671113272301 ], [ 122.975702637333995, 14.0866866509524 ], [ 122.975687535511, 14.0866909825788 ], [ 122.975476031731006, 14.0867732909831 ], [ 122.974704576684005, 14.0870734207019 ], [ 122.974408350497995, 14.087106610250199 ], [ 122.974175307566995, 14.0871327289651 ], [ 122.974021097332994, 14.087150011430699 ], [ 122.973286697066996, 14.087232335081 ], [ 122.972641881442996, 14.08730459303 ], [ 122.972367016991001, 14.0873354122226 ], [ 122.970757631805995, 14.087515770263799 ], [ 122.967880994205998, 14.087838131187899 ], [ 122.967803627280006, 14.087841750344399 ], [ 122.962187745970994, 14.088103627548801 ], [ 122.959707109373994, 14.088182296472199 ], [ 122.959361973469996, 14.088199385964399 ], [ 122.958565307331, 14.088238841276199 ], [ 122.957332288005006, 14.088299882872199 ], [ 122.957144811869995, 14.0882884056723 ], [ 122.956867456679007, 14.0882300635842 ], [ 122.956820598464006, 14.088220202611801 ], [ 122.956433703908004, 14.088146247304399 ], [ 122.956327428414994, 14.088125932655 ], [ 122.956160521675002, 14.0880940148486 ], [ 122.955761486127997, 14.0880177230223 ], [ 122.952344634233, 14.087364507397499 ], [ 122.951775508620003, 14.0872556952173 ], [ 122.951750580934004, 14.0872509126583 ], [ 122.951141844803999, 14.0871345358235 ], [ 122.950813730975995, 14.087046287722799 ], [ 122.950172774707994, 14.087139078070599 ], [ 122.950111836030999, 14.0871478799075 ], [ 122.949958951564, 14.087025742363901 ], [ 122.949875587451004, 14.087039317059199 ], [ 122.949868626636004, 14.086944319692 ], [ 122.949806093342005, 14.0869578986929 ], [ 122.949799130475, 14.0870460786414 ], [ 122.949451667774994, 14.0869510471734 ], [ 122.949208474627, 14.086849222666901 ], [ 122.949062536279001, 14.0868898938404 ], [ 122.948986092881995, 14.086835620752201 ], [ 122.948972226783994, 14.0867406589333 ], [ 122.948812369383006, 14.0867541800278 ], [ 122.948903332807006, 14.086505764382601 ], [ 122.948903673321993, 14.0865048084772 ], [ 122.948950640912003, 14.0863714965994 ], [ 122.948950984988002, 14.086370522177001 ], [ 122.948951440312996, 14.0863704852379 ], [ 122.948659814169005, 14.085332615968399 ], [ 122.948027564228994, 14.084694841178599 ], [ 122.947965128671001, 14.08411148229 ], [ 122.947193756922999, 14.084097759664299 ], [ 122.946992280871001, 14.0839349076132 ], [ 122.946839510044001, 14.0833379365244 ], [ 122.946971748926998, 14.082476520893399 ], [ 122.946589539187002, 14.082544248491701 ], [ 122.946339335722001, 14.0825916724189 ], [ 122.946417752935005, 14.081494514355301 ], [ 122.946418018531006, 14.081494514414301 ], [ 122.946520494012006, 14.0807073483947 ], [ 122.946083621366995, 14.080090092170799 ], [ 122.945851244660005, 14.079690686696701 ], [ 122.945674574037994, 14.079745089115701 ], [ 122.945612388750007, 14.0797383323356 ], [ 122.945715063582995, 14.0793955945281 ], [ 122.946338818968002, 14.079441954330701 ], [ 122.946383198571993, 14.078193868872701 ], [ 122.946052518882993, 14.078269125313 ], [ 122.945137653225004, 14.078172071272199 ], [ 122.945182041639001, 14.0769132456403 ], [ 122.944531496910002, 14.0776985452923 ], [ 122.944729802300998, 14.078236531017399 ], [ 122.943781789035995, 14.078397712573601 ], [ 122.943946984365994, 14.079032575973599 ], [ 122.943693409502998, 14.0792261753868 ], [ 122.943634826039002, 14.0795357076074 ], [ 122.943088593493002, 14.0792831815179 ], [ 122.939828573778001, 14.0777760076164 ], [ 122.939531526864002, 14.0776386428746 ], [ 122.939466951015007, 14.0776356638456 ], [ 122.939277956037003, 14.077665133627599 ], [ 122.939436123622997, 14.077274930634699 ], [ 122.939436204909001, 14.076966351112601 ], [ 122.939231662260994, 14.076966299688801 ], [ 122.939185100366004, 14.077138725110601 ], [ 122.938924614745005, 14.0777739657629 ], [ 122.938803814826997, 14.0774653556294 ], [ 122.938627101473998, 14.077537937302701 ], [ 122.938496983649998, 14.077456203927699 ], [ 122.938329663285003, 14.077165729070201 ], [ 122.937939281691001, 14.076748128125701 ], [ 122.937437206301993, 14.076593708705399 ], [ 122.937595366420993, 14.0762397646193 ], [ 122.937558235623001, 14.0760491704724 ], [ 122.937390905981005, 14.0759402057916 ], [ 122.937437598947, 14.075150621588399 ], [ 122.937521376152006, 14.0748602110889 ], [ 122.938263006292004, 14.0745987092634 ], [ 122.938730219142997, 14.074433946378401 ], [ 122.938962664908004, 14.074506594815199 ], [ 122.938720993716004, 14.074170732887501 ], [ 122.938934951730005, 14.0738530967703 ], [ 122.938888520486998, 14.0735354316987 ], [ 122.938739872533006, 14.0730906719483 ], [ 122.938405131490001, 14.073190434416899 ], [ 122.938005310495001, 14.073190332053301 ], [ 122.937940285967997, 14.073026951831499 ], [ 122.937921837041003, 14.0725005247302 ], [ 122.937680334239005, 14.071556539086901 ], [ 122.937708323825007, 14.071175340041201 ], [ 122.937652642241005, 14.0708395248939 ], [ 122.937764311172003, 14.0705219003169 ], [ 122.937569122876994, 14.070186012092 ], [ 122.937029870551001, 14.0700679139971 ], [ 122.937076459916995, 14.0697956412136 ], [ 122.937197491397001, 14.069232955455201 ], [ 122.937104554498006, 14.069033235879701 ], [ 122.936388587913996, 14.069160117077001 ], [ 122.936472371744003, 14.068842485708799 ], [ 122.935858793384, 14.0684701908324 ], [ 122.935198719606007, 14.068306651005599 ], [ 122.934947647046002, 14.068388283789901 ], [ 122.934659454881995, 14.068252063490601 ], [ 122.934475112640996, 14.067822438822301 ], [ 122.934312368389996, 14.0677582491224 ], [ 122.934155483642002, 14.067768428187 ], [ 122.933742239306994, 14.068038896467501 ], [ 122.933674203682997, 14.068202241353699 ], [ 122.933590490241997, 14.0682634750499 ], [ 122.933198248064997, 14.068324660585301 ], [ 122.933077907427005, 14.0684369188753 ], [ 122.932999410148, 14.068564521413199 ], [ 122.932826841432998, 14.0684930319968 ], [ 122.932131392499002, 14.0681303341018 ], [ 122.931869868771003, 14.068140482243299 ], [ 122.931346865289001, 14.0681403340964 ], [ 122.931273644062003, 14.0681300914692 ], [ 122.930939036637, 14.067798157973501 ], [ 122.930891966920996, 14.067752183457999 ], [ 122.930928594319994, 14.0677011590282 ], [ 122.931106423548002, 14.067685877139599 ], [ 122.931263385948995, 14.067543001901999 ], [ 122.931294814116995, 14.0673694254821 ], [ 122.931132750607006, 14.067063058729399 ], [ 122.930960221907995, 14.066863906632999 ], [ 122.930756254311007, 14.066874032989499 ], [ 122.930494706664007, 14.067093504263701 ], [ 122.930233174763998, 14.067134278990199 ], [ 122.930301193950996, 14.067032191773199 ], [ 122.930248945328998, 14.066924958925799 ], [ 122.929694526261002, 14.067062644247899 ], [ 122.929542823931001, 14.067123856737901 ], [ 122.928930814547002, 14.0674963655529 ], [ 122.928909969583003, 14.067302367501901 ], [ 122.928957067081001, 14.0671339069015 ], [ 122.928925741268998, 14.0669705341164 ], [ 122.929025124635999, 14.0669092696054 ], [ 122.928941506708995, 14.066781620696201 ], [ 122.928768910586996, 14.0668070872989 ], [ 122.928219670884005, 14.06712346702 ], [ 122.927900613706996, 14.0671897395651 ], [ 122.927759417489, 14.0671386624528 ], [ 122.927586832220001, 14.067128388960301 ], [ 122.927503082168002, 14.0673019491849 ], [ 122.927571036718007, 14.0674091873297 ], [ 122.927570988509004, 14.067562329075599 ], [ 122.927288606344007, 14.0675469485455 ], [ 122.927095121624006, 14.067398822305099 ], [ 122.926901649138003, 14.0673323962087 ], [ 122.926206180093004, 14.066954385604401 ], [ 122.926059719175001, 14.0669951909481 ], [ 122.925562774632994, 14.0673728373127 ], [ 122.925479085812, 14.0673523679071 ], [ 122.925353598814993, 14.067296183340799 ], [ 122.925235541486003, 14.067377106397601 ], [ 122.925243688167996, 14.0675258804858 ], [ 122.924783887998004, 14.067892537176901 ], [ 122.924579960521996, 14.0678924735629 ], [ 122.923921264084996, 14.0677238295078 ], [ 122.923372206465004, 14.0679227216286 ], [ 122.923403549713996, 14.0680222459292 ], [ 122.923481849511006, 14.068389736858199 ], [ 122.923442558066, 14.068688267454601 ], [ 122.923357818393995, 14.068746386281299 ], [ 122.922940532751994, 14.069032611820999 ], [ 122.922948312531005, 14.0691397949943 ], [ 122.922892200391004, 14.069135555034499 ], [ 122.922846369786001, 14.0691320960926 ], [ 122.922799403568007, 14.068894794733 ], [ 122.922587695605998, 14.068787546252301 ], [ 122.922187738405, 14.068764455679901 ], [ 122.921615195658006, 14.068840822819499 ], [ 122.921584615051998, 14.068843294266401 ], [ 122.921426969354002, 14.0688560572901 ], [ 122.921309362738995, 14.0688330569872 ], [ 122.921246573044002, 14.068940217202099 ], [ 122.921164963562006, 14.0692728803064 ], [ 122.921073817478003, 14.069644464545499 ], [ 122.921005286382993, 14.069786806518101 ], [ 122.920937856224, 14.0699269637364 ], [ 122.920878968688996, 14.0700493096682 ], [ 122.920875784412999, 14.070041420067399 ], [ 122.920588183323005, 14.0699698471588 ], [ 122.920532368300996, 14.070422994908499 ], [ 122.920354578911997, 14.070534339034101 ], [ 122.920323423061006, 14.0705538464497 ], [ 122.920041077717002, 14.0706417864244 ], [ 122.920021328082001, 14.071028393218601 ], [ 122.919507568491994, 14.0712655457789 ], [ 122.919299706006996, 14.071334362360099 ], [ 122.919287109937002, 14.071333802616699 ], [ 122.918742732170998, 14.072963291823299 ], [ 122.919376900624002, 14.073756656069101 ], [ 122.919660502279996, 14.0751886157813 ], [ 122.919388990662, 14.0750929367133 ], [ 122.919337544100003, 14.0750881419488 ], [ 122.919339962267003, 14.075116845240601 ], [ 122.919658540493998, 14.075265278535699 ], [ 122.920207327529994, 14.075796549134701 ], [ 122.920498916922995, 14.075985637330399 ], [ 122.920851853737005, 14.0759666060114 ], [ 122.921134971696006, 14.075856666345601 ], [ 122.921537604879006, 14.0759678669425 ], [ 122.921544736949997, 14.0759704987791 ], [ 122.921888806347994, 14.076030904126 ], [ 122.922600488924004, 14.0762062371022 ], [ 122.922703387200997, 14.076202418395701 ], [ 122.922665009037004, 14.076260218455699 ], [ 122.922565039315998, 14.076242964907699 ], [ 122.922146184854, 14.076412971048301 ], [ 122.922052017854995, 14.0765143807761 ], [ 122.921953991142004, 14.076585160892 ], [ 122.921920626328003, 14.076627259416901 ], [ 122.921904942213004, 14.076669363659599 ], [ 122.921899376420001, 14.076746914111199 ], [ 122.921889159694004, 14.076889423252499 ], [ 122.921863644808994, 14.0769430053014 ], [ 122.921628280275002, 14.0772051400201 ], [ 122.921579259162996, 14.0772070499374 ], [ 122.921461639119002, 14.077210826335399 ], [ 122.921408668818998, 14.077222290080799 ], [ 122.921347908716996, 14.0772681942513 ], [ 122.921278282060996, 14.0772796525382 ], [ 122.921172391157, 14.077268136977199 ], [ 122.921015529002005, 14.077302528657899 ], [ 122.920782212587, 14.07734267268 ], [ 122.920725333592003, 14.0773560238 ], [ 122.920697893916, 14.0773790138024 ], [ 122.920631192284006, 14.0774899871353 ], [ 122.920452710012995, 14.0776143304589 ], [ 122.920134004744995, 14.077929989472199 ], [ 122.920092752236002, 14.0781768911882 ], [ 122.920117372277005, 14.0786255097861 ], [ 122.920144285442007, 14.0786988859264 ], [ 122.920148041228003, 14.0787001834103 ], [ 122.920149478563999, 14.078712998152501 ], [ 122.920228711592003, 14.0789011644585 ], [ 122.920424578208994, 14.0798558919463 ], [ 122.920473771378994, 14.0802356696564 ], [ 122.920511688074996, 14.0805283732943 ], [ 122.920530192350995, 14.080671262144699 ], [ 122.920588958973994, 14.0807975723688 ], [ 122.920847750308994, 14.080832137417801 ], [ 122.921047739317004, 14.0808436839399 ], [ 122.921259470741006, 14.080912639071601 ], [ 122.921176633163995, 14.081494624046901 ], [ 122.921133009884002, 14.0817963375529 ], [ 122.921200611776996, 14.081939871989 ], [ 122.921127016526995, 14.0821235807698 ], [ 122.921235736767997, 14.0824107150431 ], [ 122.921423934602004, 14.0825112535752 ], [ 122.921444487285996, 14.08265766137 ], [ 122.921570920017004, 14.082743809912801 ], [ 122.921526781181996, 14.082778275552901 ], [ 122.921279682841003, 14.082938928850799 ], [ 122.921176727173005, 14.082990596703301 ], [ 122.921082545044996, 14.083126930397301 ], [ 122.920820615509001, 14.083603379547901 ], [ 122.920635302207003, 14.083718165535601 ], [ 122.920476425794007, 14.0838587737964 ], [ 122.920302914163997, 14.083858716526301 ], [ 122.920197000347002, 14.083904605448 ], [ 122.920052897214006, 14.083895965505 ], [ 122.919497068835994, 14.0838067844756 ], [ 122.919447038331995, 14.0838699131906 ], [ 122.919270594493, 14.0841161028097 ], [ 122.919149839553, 14.084284647660899 ], [ 122.919055749757007, 14.0842616541329 ], [ 122.918905797297001, 14.0840549090002 ], [ 122.918910163825998, 14.0840460589993 ], [ 122.918988229506994, 14.083888425384 ], [ 122.918955913044996, 14.083750605670801 ], [ 122.918876535644998, 14.083647250119499 ], [ 122.918950161542, 14.083383138136201 ], [ 122.918754711321, 14.0829768677015 ], [ 122.918584173800994, 14.0828304091124 ], [ 122.918522507589003, 14.0826437667144 ], [ 122.918313669422005, 14.082652325340099 ], [ 122.918101897412001, 14.0826952887112 ], [ 122.917808633394998, 14.082608563072201 ], [ 122.917480412944997, 14.082554416307 ], [ 122.917480337512004, 14.082553157076299 ], [ 122.917092140655001, 14.0826806110465 ], [ 122.916327344443005, 14.0829674086359 ], [ 122.916268449637997, 14.083093716071099 ], [ 122.916325025587, 14.083292023426001 ], [ 122.916497557621, 14.083376264760799 ], [ 122.916599450887006, 14.083537070837099 ], [ 122.916693455971, 14.083896902567201 ], [ 122.916691100425993, 14.083905456938799 ], [ 122.916575640236999, 14.0843255840183 ], [ 122.916426536239996, 14.084608779381099 ], [ 122.916308861836995, 14.0846470332125 ], [ 122.916287226321003, 14.084773538736 ], [ 122.916277416236994, 14.084830755071099 ], [ 122.916151897560994, 14.084945521300201 ], [ 122.916253618279995, 14.0855809735018 ], [ 122.916645666578006, 14.0858337279782 ], [ 122.916827189764007, 14.0859272310345 ], [ 122.917076959835001, 14.086055904050999 ], [ 122.917139607102996, 14.086362134494999 ], [ 122.917029747434995, 14.086507534841701 ], [ 122.916714109565007, 14.086583274590399 ], [ 122.916519899964001, 14.0866298720749 ], [ 122.916441488333007, 14.0865838839555 ], [ 122.916237534816005, 14.086713955683701 ], [ 122.916025793996994, 14.0866602917843 ], [ 122.915759163676, 14.0865683509374 ], [ 122.915437686334002, 14.0863232490874 ], [ 122.914998576781997, 14.0860015901851 ], [ 122.914794912538994, 14.085350805867099 ], [ 122.914230108843, 14.085618519941001 ], [ 122.913892875111998, 14.0856107704726 ], [ 122.913480047988998, 14.0852295281857 ], [ 122.913221605808005, 14.085365540525 ], [ 122.912868591578004, 14.0855491459925 ], [ 122.913111457545995, 14.0862688319135 ], [ 122.913017312226998, 14.086291759937399 ], [ 122.912946703394994, 14.086383619344 ], [ 122.912523203633995, 14.0863298758395 ], [ 122.911589751462998, 14.0866663725926 ], [ 122.911566200237004, 14.086735249839901 ], [ 122.911613237889, 14.086765895377599 ], [ 122.912373967809003, 14.086842725217 ], [ 122.912455083398001, 14.087557575320499 ], [ 122.913057805750995, 14.088074548582 ], [ 122.912263402297995, 14.0888278574881 ], [ 122.911562420486007, 14.088865858982899 ], [ 122.911572563503, 14.087947236254699 ], [ 122.911172743386999, 14.0879771990957 ], [ 122.910784467428996, 14.088080421597301 ], [ 122.910543290785995, 14.088103294201501 ], [ 122.910455186809997, 14.087712834143 ], [ 122.910302320501003, 14.087500342176901 ], [ 122.910220003907995, 14.0874486471361 ], [ 122.909978893121007, 14.087305007968901 ], [ 122.909784753245006, 14.087362340312801 ], [ 122.909661189874996, 14.087413995495901 ], [ 122.909578853124998, 14.0874139646359 ], [ 122.909467024945002, 14.0875344729583 ], [ 122.909267035289005, 14.0875114358332 ], [ 122.909108168624996, 14.087603260871299 ], [ 122.908861156685006, 14.0875112827721 ], [ 122.908355234574998, 14.087574236410299 ], [ 122.908208222916002, 14.0875282565787 ], [ 122.908137587629994, 14.087585634573699 ], [ 122.908019956708998, 14.087602848236299 ], [ 122.907972849613998, 14.0877463424945 ], [ 122.908013976657998, 14.087849724027899 ], [ 122.907808163281004, 14.087683134205699 ], [ 122.907619871427002, 14.087820870919501 ], [ 122.907213904176004, 14.0880388906672 ], [ 122.907384450981993, 14.0881537660122 ], [ 122.907290232500003, 14.0883546839517 ], [ 122.907178510194001, 14.0883029765704 ], [ 122.907178547304994, 14.088211128762801 ], [ 122.907031483598004, 14.088199591128401 ], [ 122.906796129469996, 14.0883659744464 ], [ 122.906537279890998, 14.088365874252499 ], [ 122.906643088787007, 14.088589868371599 ], [ 122.906495971878996, 14.088801727982901 ], [ 122.906331620825995, 14.088659855608499 ], [ 122.905291011848007, 14.0886864108944 ], [ 122.904991867353999, 14.088774807835099 ], [ 122.905315365858002, 14.089068366626201 ], [ 122.905241323235003, 14.089104484096501 ], [ 122.904885650696002, 14.088806209020801 ], [ 122.904627917840997, 14.0888569197944 ], [ 122.904066184448993, 14.0889016579354 ], [ 122.902850597951996, 14.088973056945401 ], [ 122.902113876393003, 14.088999720757799 ], [ 122.901865274711994, 14.088990620101001 ], [ 122.901635095410995, 14.088846717830901 ], [ 122.901142036010995, 14.0888105548035 ], [ 122.900014383663006, 14.088837088640799 ], [ 122.899903877956007, 14.0887831192442 ], [ 122.899655347294001, 14.088612208662401 ], [ 122.899535694855999, 14.088477349968599 ], [ 122.899425189436997, 14.088423380352999 ], [ 122.898467407723004, 14.088629710570901 ], [ 122.898191098086002, 14.0887284415507 ], [ 122.898191436676001, 14.0879644383645 ], [ 122.898320714034, 14.0871825273602 ], [ 122.898404142293003, 14.085915210837101 ], [ 122.898386057970995, 14.0851961236637 ] ] ] ] } }
]
}
